{"fetched_at":"2026-07-07T18:29:08.171Z","source":"https://celestrak.org/NORAD/elements/gp.php?GROUP=planet&FORMAT=JSON","constellation":"superdove","records":[{"OBJECT_NAME":"FLOCK 4G-17","OBJECT_ID":"2025-009CA","EPOCH":"2026-07-07T00:26:41.418816","CLASSIFICATION_TYPE":"U","MEAN_MOTION":15.29967886,"ECCENTRICITY":0.0003412,"INCLINATION":97.3917,"RA_OF_ASC_NODE":269.2862,"ARG_OF_PERICENTER":249.8868,"MEAN_ANOMALY":110.2006,"EPHEMERIS_TYPE":0,"NORAD_CAT_ID":62681,"ELEMENT_SET_NO":999,"REV_AT_EPOCH":13958,"BSTAR":0.00028462,"MEAN_MOTION_DOT":0.00008183,"MEAN_MOTION_DDOT":0},{"OBJECT_NAME":"FLOCK 4G-33","OBJECT_ID":"2025-009CE","EPOCH":"2026-07-06T11:11:35.918016","CLASSIFICATION_TYPE":"U","MEAN_MOTION":15.25731038,"ECCENTRICITY":0.0004023,"INCLINATION":97.3939,"RA_OF_ASC_NODE":267.1182,"ARG_OF_PERICENTER":253.7559,"MEAN_ANOMALY":106.3237,"EPHEMERIS_TYPE":0,"NORAD_CAT_ID":62685,"ELEMENT_SET_NO":999,"REV_AT_EPOCH":8174,"BSTAR":0.00019528,"MEAN_MOTION_DOT":0.00004909,"MEAN_MOTION_DDOT":0},{"OBJECT_NAME":"FLOCK 4H-1","OBJECT_ID":"2025-276AQ","EPOCH":"2026-07-07T10:44:52.773792","CLASSIFICATION_TYPE":"U","MEAN_MOTION":15.20788557,"ECCENTRICITY":0.0001201,"INCLINATION":97.4166,"RA_OF_ASC_NODE":261.8152,"ARG_OF_PERICENTER":196.1015,"MEAN_ANOMALY":164.0182,"EPHEMERIS_TYPE":0,"NORAD_CAT_ID":66704,"ELEMENT_SET_NO":999,"REV_AT_EPOCH":3351,"BSTAR":0.00020668,"MEAN_MOTION_DOT":0.00004486,"MEAN_MOTION_DDOT":0},{"OBJECT_NAME":"FLOCK 4H-2","OBJECT_ID":"2025-276AR","EPOCH":"2026-07-07T03:50:03.539616","CLASSIFICATION_TYPE":"U","MEAN_MOTION":15.21055472,"ECCENTRICITY":0.0000798,"INCLINATION":97.4162,"RA_OF_ASC_NODE":261.5773,"ARG_OF_PERICENTER":161.2326,"MEAN_ANOMALY":198.8939,"EPHEMERIS_TYPE":0,"NORAD_CAT_ID":66705,"ELEMENT_SET_NO":999,"REV_AT_EPOCH":3347,"BSTAR":0.00024328,"MEAN_MOTION_DOT":0.00005335,"MEAN_MOTION_DDOT":0},{"OBJECT_NAME":"FLOCK 4H-3","OBJECT_ID":"2025-276AS","EPOCH":"2026-07-07T11:22:57.188064","CLASSIFICATION_TYPE":"U","MEAN_MOTION":15.20180806,"ECCENTRICITY":0.000236,"INCLINATION":97.4234,"RA_OF_ASC_NODE":261.815,"ARG_OF_PERICENTER":294.7717,"MEAN_ANOMALY":65.3272,"EPHEMERIS_TYPE":0,"NORAD_CAT_ID":66706,"ELEMENT_SET_NO":999,"REV_AT_EPOCH":3350,"BSTAR":0.00021273,"MEAN_MOTION_DOT":0.00004538,"MEAN_MOTION_DDOT":0},{"OBJECT_NAME":"FLOCK 4H-4","OBJECT_ID":"2025-276AT","EPOCH":"2026-07-07T04:19:22.135584","CLASSIFICATION_TYPE":"U","MEAN_MOTION":15.19967183,"ECCENTRICITY":0.0003102,"INCLINATION":97.4212,"RA_OF_ASC_NODE":261.3967,"ARG_OF_PERICENTER":297.1152,"MEAN_ANOMALY":62.9767,"EPHEMERIS_TYPE":0,"NORAD_CAT_ID":66707,"ELEMENT_SET_NO":999,"REV_AT_EPOCH":3345,"BSTAR":0.00024161,"MEAN_MOTION_DOT":0.00005131,"MEAN_MOTION_DDOT":0},{"OBJECT_NAME":"FLOCK 4H-5","OBJECT_ID":"2025-276AU","EPOCH":"2026-07-07T12:08:52.146240","CLASSIFICATION_TYPE":"U","MEAN_MOTION":15.20843855,"ECCENTRICITY":0.0000966,"INCLINATION":97.4165,"RA_OF_ASC_NODE":261.8931,"ARG_OF_PERICENTER":129.7519,"MEAN_ANOMALY":230.3801,"EPHEMERIS_TYPE":0,"NORAD_CAT_ID":66708,"ELEMENT_SET_NO":999,"REV_AT_EPOCH":3352,"BSTAR":0.000202,"MEAN_MOTION_DOT":0.0000439,"MEAN_MOTION_DDOT":0},{"OBJECT_NAME":"FLOCK 4H-6","OBJECT_ID":"2025-276AV","EPOCH":"2026-07-06T16:40:57.504000","CLASSIFICATION_TYPE":"U","MEAN_MOTION":15.20535057,"ECCENTRICITY":0.0001786,"INCLINATION":97.4217,"RA_OF_ASC_NODE":261.1365,"ARG_OF_PERICENTER":248.3553,"MEAN_ANOMALY":111.7492,"EPHEMERIS_TYPE":0,"NORAD_CAT_ID":66709,"ELEMENT_SET_NO":999,"REV_AT_EPOCH":3339,"BSTAR":0.00026168,"MEAN_MOTION_DOT":0.00005656,"MEAN_MOTION_DDOT":0},{"OBJECT_NAME":"FLOCK 4H-7","OBJECT_ID":"2025-276AW","EPOCH":"2026-07-07T04:51:08.109216","CLASSIFICATION_TYPE":"U","MEAN_MOTION":15.20310395,"ECCENTRICITY":0.0001296,"INCLINATION":97.4176,"RA_OF_ASC_NODE":261.4006,"ARG_OF_PERICENTER":0.9586,"MEAN_ANOMALY":359.1652,"EPHEMERIS_TYPE":0,"NORAD_CAT_ID":66710,"ELEMENT_SET_NO":999,"REV_AT_EPOCH":3346,"BSTAR":0.00023075,"MEAN_MOTION_DOT":0.00004947,"MEAN_MOTION_DDOT":0},{"OBJECT_NAME":"FLOCK 4H-8","OBJECT_ID":"2025-276AX","EPOCH":"2026-07-07T12:32:41.593632","CLASSIFICATION_TYPE":"U","MEAN_MOTION":15.20421521,"ECCENTRICITY":0.000206,"INCLINATION":97.4215,"RA_OF_ASC_NODE":261.86,"ARG_OF_PERICENTER":319.4164,"MEAN_ANOMALY":40.6917,"EPHEMERIS_TYPE":0,"NORAD_CAT_ID":66711,"ELEMENT_SET_NO":999,"REV_AT_EPOCH":3351,"BSTAR":0.00019975,"MEAN_MOTION_DOT":0.00004287,"MEAN_MOTION_DDOT":0},{"OBJECT_NAME":"FLOCK 4H-9","OBJECT_ID":"2025-276AY","EPOCH":"2026-07-07T05:00:58.821696","CLASSIFICATION_TYPE":"U","MEAN_MOTION":15.20717032,"ECCENTRICITY":0.0001902,"INCLINATION":97.4204,"RA_OF_ASC_NODE":261.6432,"ARG_OF_PERICENTER":256.8269,"MEAN_ANOMALY":103.2754,"EPHEMERIS_TYPE":0,"NORAD_CAT_ID":66712,"ELEMENT_SET_NO":999,"REV_AT_EPOCH":3347,"BSTAR":0.00023817,"MEAN_MOTION_DOT":0.00005169,"MEAN_MOTION_DDOT":0},{"OBJECT_NAME":"FLOCK 4H-10","OBJECT_ID":"2025-276AZ","EPOCH":"2026-07-07T05:32:11.531328","CLASSIFICATION_TYPE":"U","MEAN_MOTION":15.20093482,"ECCENTRICITY":0.0002952,"INCLINATION":97.418,"RA_OF_ASC_NODE":261.384,"ARG_OF_PERICENTER":298.3443,"MEAN_ANOMALY":61.7494,"EPHEMERIS_TYPE":0,"NORAD_CAT_ID":66713,"ELEMENT_SET_NO":999,"REV_AT_EPOCH":3346,"BSTAR":0.00024401,"MEAN_MOTION_DOT":0.00005202,"MEAN_MOTION_DDOT":0},{"OBJECT_NAME":"FLOCK 4H-11","OBJECT_ID":"2025-276BA","EPOCH":"2026-07-06T16:20:27.784032","CLASSIFICATION_TYPE":"U","MEAN_MOTION":15.23174636,"ECCENTRICITY":0.0001275,"INCLINATION":97.4187,"RA_OF_ASC_NODE":261.3954,"ARG_OF_PERICENTER":308.7245,"MEAN_ANOMALY":51.3877,"EPHEMERIS_TYPE":0,"NORAD_CAT_ID":66714,"ELEMENT_SET_NO":999,"REV_AT_EPOCH":3341,"BSTAR":0.00051203,"MEAN_MOTION_DOT":0.00012042,"MEAN_MOTION_DDOT":0},{"OBJECT_NAME":"FLOCK 4H-12","OBJECT_ID":"2025-276BB","EPOCH":"2026-07-07T03:07:47.383392","CLASSIFICATION_TYPE":"U","MEAN_MOTION":15.20743513,"ECCENTRICITY":0.0000992,"INCLINATION":97.4178,"RA_OF_ASC_NODE":261.5042,"ARG_OF_PERICENTER":211.9553,"MEAN_ANOMALY":148.1623,"EPHEMERIS_TYPE":0,"NORAD_CAT_ID":66715,"ELEMENT_SET_NO":999,"REV_AT_EPOCH":3377,"BSTAR":0.00024399,"MEAN_MOTION_DOT":0.00005302,"MEAN_MOTION_DDOT":0},{"OBJECT_NAME":"FLOCK 4H-13","OBJECT_ID":"2025-276BC","EPOCH":"2026-07-07T10:19:57.506016","CLASSIFICATION_TYPE":"U","MEAN_MOTION":15.20847267,"ECCENTRICITY":0.000134,"INCLINATION":97.4212,"RA_OF_ASC_NODE":261.9685,"ARG_OF_PERICENTER":152.9794,"MEAN_ANOMALY":207.1512,"EPHEMERIS_TYPE":0,"NORAD_CAT_ID":66716,"ELEMENT_SET_NO":999,"REV_AT_EPOCH":3351,"BSTAR":0.00021114,"MEAN_MOTION_DOT":0.00004592,"MEAN_MOTION_DDOT":0},{"OBJECT_NAME":"FLOCK 4H-14","OBJECT_ID":"2025-276BD","EPOCH":"2026-07-06T23:58:00.805152","CLASSIFICATION_TYPE":"U","MEAN_MOTION":15.21295533,"ECCENTRICITY":0.0001279,"INCLINATION":97.4194,"RA_OF_ASC_NODE":261.586,"ARG_OF_PERICENTER":148.2051,"MEAN_ANOMALY":211.9262,"EPHEMERIS_TYPE":0,"NORAD_CAT_ID":66717,"ELEMENT_SET_NO":999,"REV_AT_EPOCH":3270,"BSTAR":0.00024386,"MEAN_MOTION_DOT":0.00005385,"MEAN_MOTION_DDOT":0}]}
