FLOCK 4G-17             
1 62681U 25009CA  26188.01853494  .00008183  00000+0  28462-3 0  9992
2 62681  97.3917 269.2862 0003412 249.8868 110.2006 15.29967886139588
FLOCK 4G-33             
1 62685U 25009CE  26187.46638794  .00004909  00000+0  19528-3 0  9993
2 62685  97.3939 267.1182 0004023 253.7559 106.3237 15.25731038 81748
FLOCK 4H-1              
1 66704U 25276AQ  26188.44783303  .00004486  00000+0  20668-3 0  9998
2 66704  97.4166 261.8152 0001201 196.1015 164.0182 15.20788557 33512
FLOCK 4H-2              
1 66705U 25276AR  26188.15976319  .00005335  00000+0  24328-3 0  9999
2 66705  97.4162 261.5773 0000798 161.2326 198.8939 15.21055472 33477
FLOCK 4H-3              
1 66706U 25276AS  26188.47427301  .00004538  00000+0  21273-3 0  9997
2 66706  97.4234 261.8150 0002360 294.7717  65.3272 15.20180806 33504
FLOCK 4H-4              
1 66707U 25276AT  26188.18011731  .00005131  00000+0  24161-3 0  9991
2 66707  97.4212 261.3967 0003102 297.1152  62.9767 15.19967183 33452
FLOCK 4H-5              
1 66708U 25276AU  26188.50615910  .00004390  00000+0  20200-3 0  9993
2 66708  97.4165 261.8931 0000966 129.7519 230.3801 15.20843855 33527
FLOCK 4H-6              
1 66709U 25276AV  26187.69511000  .00005656  00000+0  26168-3 0  9993
2 66709  97.4217 261.1365 0001786 248.3553 111.7492 15.20535057 33392
FLOCK 4H-7              
1 66710U 25276AW  26188.20217719  .00004947  00000+0  23075-3 0  9999
2 66710  97.4176 261.4006 0001296   0.9586 359.1652 15.20310395 33467
FLOCK 4H-8              
1 66711U 25276AX  26188.52270363  .00004287  00000+0  19975-3 0  9990
2 66711  97.4215 261.8600 0002060 319.4164  40.6917 15.20421521 33512
FLOCK 4H-9              
1 66712U 25276AY  26188.20901414  .00005169  00000+0  23817-3 0  9994
2 66712  97.4204 261.6432 0001902 256.8269 103.2754 15.20717032 33471
FLOCK 4H-10             
1 66713U 25276AZ  26188.23068902  .00005202  00000+0  24401-3 0  9992
2 66713  97.4180 261.3840 0002952 298.3443  61.7494 15.20093482 33460
FLOCK 4H-11             
1 66714U 25276BA  26187.68087713  .00012042  00000+0  51203-3 0  9992
2 66714  97.4187 261.3954 0001275 308.7245  51.3877 15.23174636 33416
FLOCK 4H-12             
1 66715U 25276BB  26188.13040953  .00005302  00000+0  24399-3 0  9996
2 66715  97.4178 261.5042 0000992 211.9553 148.1623 15.20743513 33775
FLOCK 4H-13             
1 66716U 25276BC  26188.43052669  .00004592  00000+0  21114-3 0  9999
2 66716  97.4212 261.9685 0001340 152.9794 207.1512 15.20847267 33517
FLOCK 4H-14             
1 66717U 25276BD  26187.99862043  .00005385  00000+0  24386-3 0  9990
2 66717  97.4194 261.5860 0001279 148.2051 211.9262 15.21295533 32702
